<?xml version="1.0" encoding="UTF-8"?>
<kml xmlns="http://www.opengis.net/kml/2.2">
<Document>
<Placemark>
<Polygon>
<outerBoundaryIs>
<LinearRing>
<coordinates>
-104.743181,39.972286,0
-104.74493265026088,39.97229743078642,0
-104.7450982167731,39.97007123397888,0
-104.74428696023551,39.97006587943627,0
-104.74425166917646,39.97012843931009,0
-104.74406411905258,39.97026156444594,0
-104.74361233907253,39.97035343804379,0
-104.74309765129478,39.97059160461897,0
-104.74272376652452,39.97060493272604,0
-104.7425458915455,39.970668369650696,0
-104.7425397027519,39.97160254850721,0
-104.74259925952735,39.971832791669875,0
-104.74270086980607,39.9719413379479,0
-104.74320772593406,39.97227668568364,0
</coordinates>
</LinearRing>
</outerBoundaryIs>
</Polygon>
</Placemark>
</Document>
</kml>
