<?xml version="1.0" encoding="UTF-8"?>
<kml xmlns="http://www.opengis.net/kml/2.2">
<Document>
<Style id="blueTransparent">
  <LineStyle>
    <color>FF0000FF</color>
    <width>2</width>
  </LineStyle>
  <PolyStyle>
    <color>4DFF0000</color>
    <fill>1</fill>
    <outline>1</outline>
  </PolyStyle>
</Style>
<Placemark>
<styleUrl>#blueTransparent</styleUrl>
<Polygon>
<outerBoundaryIs>
<LinearRing>
<coordinates>
-104.709132,40.423314,0
-104.709132,40.42605888490697,0
-104.70911467365354,40.42619297532358,0
-104.70908018782283,40.42632512556999,0
-104.70902887462526,40.42645406296708,0
-104.70896122823497,40.42657854577725,0
-104.70887790012368,40.426697375162966,0
-104.70877969278665,40.4268094067323,0
-104.70866755201423,40.42691356156,0
-104.70854255778336,40.427008836578125,0
-104.70840591385681,40.42709431423618,0
-104.70825893619028,40.42716917133758,0
-104.70810304025905,40.42723268696753,0
-104.70793972742617,40.42728424943578,0
-104.70777057048348,40.42732336216758,0
-104.70759719850481,40.42734964848594,0
-104.70742128115711,40.427362855239245,0
-104.70724451262059,40.427362855239245,0
-104.70724451262059,40.43010774014622,0
</coordinates>
</LinearRing>
</outerBoundaryIs>
</Polygon>
</Placemark>
</Document>
</kml>
